<?xml version="1.0" encoding="UTF-8"?>
<ndm xmlns:xsi="http://www.w3.org/2001/XMLSchema-instance" xsi:noNamespaceSchemaLocation="https://sanaregistry.org/r/ndmxml_unqualified/ndmxml-2.0.0-master-2.0.xsd">
<omm id="CCSDS_OMM_VERS" version="2.0">
<header><CREATION_DATE/><ORIGINATOR/></header><body><segment><metadata><OBJECT_NAME>IRIDIUM 71</OBJECT_NAME><OBJECT_ID>1998-026B</OBJECT_ID><CENTER_NAME>EARTH</CENTER_NAME><REF_FRAME>TEME</REF_FRAME><TIME_SYSTEM>UTC</TIME_SYSTEM><MEAN_ELEMENT_THEORY>SGP4</MEAN_ELEMENT_THEORY></metadata><data><meanElements><EPOCH>2024-05-23T20:29:25.651104</EPOCH><MEAN_MOTION>14.40315808</MEAN_MOTION><ECCENTRICITY>.000065</ECCENTRICITY><INCLINATION>86.3980</INCLINATION><RA_OF_ASC_NODE>254.4298</RA_OF_ASC_NODE><ARG_OF_PERICENTER>14.6435</ARG_OF_PERICENTER><MEAN_ANOMALY>345.4783</MEAN_ANOMALY></meanElements><tleParameters><EPHEMERIS_TYPE>0</EPHEMERIS_TYPE><CLASSIFICATION_TYPE>U</CLASSIFICATION_TYPE><NORAD_CAT_ID>25320</NORAD_CAT_ID><ELEMENT_SET_NO>999</ELEMENT_SET_NO><REV_AT_EPOCH>36753</REV_AT_EPOCH><BSTAR>.34605E-3</BSTAR><MEAN_MOTION_DOT>.1116E-4</MEAN_MOTION_DOT><MEAN_MOTION_DDOT>0</MEAN_MOTION_DDOT></tleParameters></data></segment></body></omm>
<omm id="CCSDS_OMM_VERS" version="2.0">
<header><CREATION_DATE/><ORIGINATOR/></header><body><segment><metadata><OBJECT_NAME>IRIDIUM 73</OBJECT_NAME><OBJECT_ID>1998-032C</OBJECT_ID><CENTER_NAME>EARTH</CENTER_NAME><REF_FRAME>TEME</REF_FRAME><TIME_SYSTEM>UTC</TIME_SYSTEM><MEAN_ELEMENT_THEORY>SGP4</MEAN_ELEMENT_THEORY></metadata><data><meanElements><EPOCH>2024-05-23T16:10:55.510176</EPOCH><MEAN_MOTION>14.50539706</MEAN_MOTION><ECCENTRICITY>.0001923</ECCENTRICITY><INCLINATION>86.4464</INCLINATION><RA_OF_ASC_NODE>211.9859</RA_OF_ASC_NODE><ARG_OF_PERICENTER>106.4289</ARG_OF_PERICENTER><MEAN_ANOMALY>253.7128</MEAN_ANOMALY></meanElements><tleParameters><EPHEMERIS_TYPE>0</EPHEMERIS_TYPE><CLASSIFICATION_TYPE>U</CLASSIFICATION_TYPE><NORAD_CAT_ID>25344</NORAD_CAT_ID><ELEMENT_SET_NO>999</ELEMENT_SET_NO><REV_AT_EPOCH>37407</REV_AT_EPOCH><BSTAR>.28726E-3</BSTAR><MEAN_MOTION_DOT>.1145E-4</MEAN_MOTION_DOT><MEAN_MOTION_DDOT>0</MEAN_MOTION_DDOT></tleParameters></data></segment></body></omm>
<omm id="CCSDS_OMM_VERS" version="2.0">
<header><CREATION_DATE/><ORIGINATOR/></header><body><segment><metadata><OBJECT_NAME>IRIDIUM 82</OBJECT_NAME><OBJECT_ID>1998-051A</OBJECT_ID><CENTER_NAME>EARTH</CENTER_NAME><REF_FRAME>TEME</REF_FRAME><TIME_SYSTEM>UTC</TIME_SYSTEM><MEAN_ELEMENT_THEORY>SGP4</MEAN_ELEMENT_THEORY></metadata><data><meanElements><EPOCH>2024-05-24T02:01:29.305344</EPOCH><MEAN_MOTION>15.09614346</MEAN_MOTION><ECCENTRICITY>.012664</ECCENTRICITY><INCLINATION>86.3746</INCLINATION><RA_OF_ASC_NODE>297.2043</RA_OF_ASC_NODE><ARG_OF_PERICENTER>309.8150</ARG_OF_PERICENTER><MEAN_ANOMALY>49.1993</MEAN_ANOMALY></meanElements><tleParameters><EPHEMERIS_TYPE>0</EPHEMERIS_TYPE><CLASSIFICATION_TYPE>U</CLASSIFICATION_TYPE><NORAD_CAT_ID>25467</NORAD_CAT_ID><ELEMENT_SET_NO>999</ELEMENT_SET_NO><REV_AT_EPOCH>36485</REV_AT_EPOCH><BSTAR>.70698E-3</BSTAR><MEAN_MOTION_DOT>.13788E-3</MEAN_MOTION_DOT><MEAN_MOTION_DDOT>0</MEAN_MOTION_DDOT></tleParameters></data></segment></body></omm>
<omm id="CCSDS_OMM_VERS" version="2.0">
<header><CREATION_DATE/><ORIGINATOR/></header><body><segment><metadata><OBJECT_NAME>IRIDIUM 2</OBJECT_NAME><OBJECT_ID>1998-066A</OBJECT_ID><CENTER_NAME>EARTH</CENTER_NAME><REF_FRAME>TEME</REF_FRAME><TIME_SYSTEM>UTC</TIME_SYSTEM><MEAN_ELEMENT_THEORY>SGP4</MEAN_ELEMENT_THEORY></metadata><data><meanElements><EPOCH>2024-05-24T11:58:33.243168</EPOCH><MEAN_MOTION>15.81389943</MEAN_MOTION><ECCENTRICITY>.0000331</ECCENTRICITY><INCLINATION>85.4975</INCLINATION><RA_OF_ASC_NODE>318.6578</RA_OF_ASC_NODE><ARG_OF_PERICENTER>261.2346</ARG_OF_PERICENTER><MEAN_ANOMALY>98.8891</MEAN_ANOMALY></meanElements><tleParameters><EPHEMERIS_TYPE>0</EPHEMERIS_TYPE><CLASSIFICATION_TYPE>U</CLASSIFICATION_TYPE><NORAD_CAT_ID>25527</NORAD_CAT_ID><ELEMENT_SET_NO>999</ELEMENT_SET_NO><REV_AT_EPOCH>40368</REV_AT_EPOCH><BSTAR>.14206E-2</BSTAR><MEAN_MOTION_DOT>.28839E-2</MEAN_MOTION_DOT><MEAN_MOTION_DDOT>0</MEAN_MOTION_DDOT></tleParameters></data></segment></body></omm>
</ndm>
